#dP2022  7 23  0  0  0.00000000      97 __u+U IGS14 FIT  IAC
## 2219 518400.00000000   900.00000000 59783 0.0000000000000
+  116   C06C07C08C09C10C11C12C13C14C16C19C20C21C22C23C24C25
+        C26C27C28C29C30C32C33C34C35C36C37C38C39C40C41C42C43
+        C44C45C46E01E02E03E04E05E07E08E09E10E11E12E13E14E15
+        E18E19E21E24E25E26E27E30E31E33E34E36G01G02G03G04G05
+        G06G07G08G09G10G11G12G13G14G15G16G17G18G19G20G21G22
+        G23G24G25G26G27G28G29G30G31G32J02J03R01R02R03R04R05
+        R07R08R09R11R12R13R14R15R17R18R19R20R21R24  0  0  0
++         7  7  7  7  7  7  6  7 10  7  5  5  6  6  5  6  6
++         6  5  6  5  5  5  6  6  5  6  6  6  6  6  6  6  6
++         6  6  6  4  4  4  4  4  4  4  5  4  4  4  4  5  4
++         4  4  4  4  4  4  4  4  4  4  4  4  3  3  3  3  4
++         3  3  4  3  3  3  3  4  3  3  4  3  3  3  4  3  3
++         3  3  3  3  3  4  3  3  3  3  9  9  7  6  6  6  6
++         6  6  6  6  6  7  6  6  6  6  7  6  6  6  0  0  0
%c M  cc GPS ccc cccc cccc cccc cccc ccccc ccccc ccccc ccccc
%c cc cc ccc ccc cccc cccc cccc cccc ccccc ccccc ccccc ccccc
%f  1.2500000  1.025000000  0.00000000000  0.000000000000000
%f  0.0000000  0.000000000  0.00000000000  0.000000000000000
%i    0    0    0    0      0      0      0      0         0
%i    0    0    0    0      0      0      0      0         0
/* INFORMATION & ANALYSIS CENTER (IAC)            FINAL DATA
/* S/V CLOCKS ARE ALIGNED TO GNSS TIME                      
/* G:C1WC2W R:C1PC2P E:C1XC5X C:C2IC6I J:C1CC2S             
/* PCV:IGS14_2215 OL/AL:FES2004  NONE     YN ORB:CoN CLK:CoN
*  2022 07 23 10  0  0.00000000
PC06  -5649.342365  39912.350053  12769.696770    453.765433
PC07  -6822.610328  26132.004268 -32329.961563   -466.876424
PC08 -18808.765474  30244.122588  22404.051868    414.941642
PC09  -1997.771838  42075.110243   5534.763602   -918.928141
PC10    356.609378  27596.539242 -31508.856515    115.892078
PC11  -1799.309287  26390.261541  -8773.536383    491.430031
PC12 -12075.253049  13264.939364 -21340.408360   -570.201404
PC13 -13061.464612  30783.746300  25627.935126     31.998707
PC14  -1899.397476  15985.934363  22806.088385    554.297731
PC16  -7077.961413  38762.262408  15546.625279    143.330592
PC19  -9135.417288 -17523.146297 -19690.906040   -270.411311
PC20  10523.313021 -12642.275105 -22527.643839   -964.093016
PC21 -25232.113981   -256.765553  11960.676519    -38.954745
PC22 -24362.423080 -12549.695035  -5356.446536   -963.070357
PC23  15321.456328   7772.155993 -21977.764834   -949.816829
PC24 -18635.868878  20209.279572  -4735.953433   -967.677760
PC25   -918.468011  19735.422887 -19704.047922   -703.537185
PC26 -23474.285016  10181.132533  11091.290285    705.560493
PC27  15488.170332  -3570.789002  22913.160703    758.561459
PC28  14797.072459  16332.134422  17113.132156     93.244103
PC29  -6146.484036 -27216.123216   -606.231542    585.476170
PC30   6992.695022 -21587.789584  16221.096660    501.378434
PC32  25240.032915    112.659137 -11874.516495    -47.471902
PC33   9074.185233  17493.834541  19751.651601   -233.004283
PC34  -6383.638766  22356.525203 -15460.438058   -352.571171
PC35 -15096.801680 -16899.660480 -16279.604837    378.745502
PC36   1925.397517 -19943.395862  19455.567030   -971.740798
PC37  23618.098514  -8671.426143 -12070.901652   -920.531686
PC38 -23749.893778  31382.002171  14884.287057     12.073448
PC39  -8724.819689  35665.940698  20912.361837     -0.115848
PC40 -11288.270235  19890.200522 -35432.402761     -1.048810
PC41  24116.241588  12756.815212   5902.353468   -103.887640
PC42 -11720.809191  12134.246346  22273.940195   -952.646263
PC43   5567.736375  27354.563988   -133.690851      4.512705
PC44 -15545.867499   3959.675741 -22849.107919    733.103724
PC45 -15491.332736  -7417.911978  22000.185024    816.195922
PC46  17629.443799 -20725.613496   6287.534405   -447.048507
PE01  -4163.761413 -16168.192208  24448.880550   -520.582525
PE02   4380.626000  16118.519430 -24433.639794    313.734662
PE03  11879.617864  25078.917245  10279.505871   -581.900814
PE04 -22406.953145 -17642.902237   7943.780631  -1077.533614
PE05  -5853.432450  17915.332121  22828.181063   -160.351155
PE07  19891.830325   -457.199344 -21903.520636   -690.034436
PE08  22452.049250  17483.200626  -8119.248361   -568.517888
PE09 -19816.189837    404.179288  21995.131545   -597.399342
PE10 -16702.240993     22.362958 -24451.110660   -502.453366
PE11 -18089.676853  11605.590715 -20374.258266   2908.563311
PE12 -12903.313399 -10923.895674 -24304.997268    -76.812055
PE13  18001.510307 -10895.280586  20813.099316    429.937582
PE14 -18774.558648   7870.670297 -24250.551747  -1770.888324
PE15  12761.906257  11059.518265  24307.602563    731.508548
PE18   6872.434976 -16977.104007  17425.079338  -1181.125220
PE19  -9847.022862 -24979.242856 -12452.551858  -5014.205249
PE21  16239.902121 -16020.584780  18865.583367   -747.544043
PE24 -28982.878723   5877.884855  -1054.034161   -740.369982
PE25 -16527.273224  15937.952222 -18671.059881   -582.035716
PE26  12258.258470 -26615.299595   4209.317055  -1409.695734
PE27  28756.482820  -6700.092687   2126.231999   -351.313101
PE30  23607.453934   7182.625537 -16358.102682   -695.080992
PE31 -24229.073525  -6492.271431  15730.220968   -500.397672
PE33    -28.418982 -26367.230470 -13452.917070   -454.454250
PE34    199.889665  26282.395332  13590.340566   -487.258935
PE36 -12641.713674  26268.597081  -5145.863173   -406.209268
PG01  13913.435795 -21947.207325   4201.496103    315.955624
PG02 -16661.680470   6936.114800 -18924.392483   -650.854204
PG03  17003.214351 -12400.700928 -16252.899276   -314.478513
PG04   7767.477709 -14667.448444 -20705.829932   -142.482347
PG05 -25633.374434   5930.661640   3991.350073    -90.175585
PG06 -10521.713748 -11085.342136 -21653.282796    396.477708
PG07   3216.348760 -24068.904481  10562.616560    318.184564
PG08  13500.420133  -7106.534411  21717.151703    -77.383906
PG09  -2747.302033 -21866.655575 -14869.849888   -316.150852
PG10  14379.031503  11875.975460  19174.170507   -501.964494
PG11 -17071.328644   1906.794462 -20253.870768    -10.400172
PG12 -19742.858272  10259.149017 -14693.492868   -250.808140
PG13 -17091.757687  -3488.782373  19924.222545    353.886278
PG14 -12382.291348 -13307.740604  19404.415866   -111.401903
PG15 -13066.468476   8817.593372  20969.785364    -43.181202
PG16  26776.332578   1056.452958  -1135.033699   -516.893958
PG17 -13023.480814 -23102.596917   1097.155110    640.117341
PG18  -4024.130490  24010.532176  10458.904992    104.751507
PG19 -16918.671499 -18781.485197  -8789.036956    187.450871
PG20 -25062.044522   -193.320436  -8430.609695    500.879105
PG21  16443.644486 -15323.654782  14194.569740    160.978968
PG22  17751.751387  16894.003896 -10041.007351    297.162112
PG23   2676.108430  14802.172906  21881.643043    -34.124874
PG24 -14430.026237  20207.207832   8517.706195    189.432652
PG25  -6261.940601  15389.589012 -20952.900482    352.439438
PG26  23870.591385   4895.777683 -11024.676917    219.788101
PG27  18959.666318   6560.489083  17385.095293    220.927456
PG28 -19957.125419 -10274.238094  14521.472939    336.698372
PG29   1238.635376  21948.649627 -14899.002217   -536.158703
PG30  -5075.041412 -19133.758346  17681.296330   -534.583097
PG31  12884.198894   8578.939022 -21694.288724   -186.843395
PG32  16109.043659  21185.557693  -1481.043848   -183.772894
PJ02 -35368.877401  16936.173956 -10942.360525     -2.055624
PJ03 -19308.970316  30973.207869 -16363.902472     -0.234169
PR01 -21792.718247 -13107.961294  -2083.897377     11.938193
PR02 -19469.988853  -2623.205276  16275.072200    524.948004
PR03  -5827.384452   9253.607898  23088.245399     60.685608
PR04  10811.641620  15596.942525  17076.836208    151.589424
PR05  21519.094326  13619.706288   1660.337349     96.691279
PR07   5181.783657  -9589.084281 -23023.356430     38.263132
PR08 -10977.858548 -15616.994551 -16848.987196    -66.358315
PR09  22556.227136  -9875.760850  -6482.405904     67.278886
PR11   2146.625450 -13250.298952  21701.396213     32.520515
PR12 -15230.377214  -2399.579063  20348.091629     19.452158
PR13 -22513.227634   9041.352410   7876.836636    -24.908158
PR14 -16772.853944  15916.292788 -10777.125078     24.783037
PR15  -1347.213492  12946.143590 -21912.989441     94.554632
PR17  -5800.850551  21484.711650 -12424.951944    545.960641
PR18   1460.074071  25158.729586   4107.087717     34.021456
PR19   7169.093675  16856.869312  17739.875848   -197.339751
PR20  10350.654823  -4523.020405  22867.084012    -75.139424
PR21   5263.553941 -22390.468166  11056.778523   -319.670963
PR24 -10634.477735   5557.003022 -22497.069275    105.026226
EOF
